SWARM A                 
1 39452U 13067B   26161.50909612  .00009720  00000+0  16788-3 0  9998
2 39452  87.3332  58.7218 0002987  93.3122 266.8480 15.50818231705211
SWARM C                 
1 39453U 13067C   26161.50897939  .00009638  00000+0  16645-3 0  9997
2 39453  87.3332  57.3032 0002972  93.0528 267.1073 15.50820569705176
BRITE-CA1 (TORONTO)     
1 40020U 14033L   26161.58304723  .00000603  00000+0  98553-4 0  9997
2 40020  97.9731 290.6330 0077376 298.5340  60.8094 14.72667572641249
OCO 2                   
1 40059U 14035A   26161.56319213  .00000341  00000+0  85634-4 0  9994
2 40059  98.2017 102.9572 0001488  86.4630 273.6738 14.57105807635087
BRITE-PL2 (HEWELIUSZ)   
1 40119U 14049B   26161.54434165  .00001468  00000+0  14098-3 0  9994
2 40119  97.9091 273.4936 0015151 128.1527 232.1061 14.94573225640451
MMS 1                   
1 40482U 15011A   26161.66670139 -.00000005  00000+0  00000+0 0  9994
2 40482  72.0847 348.8655 8324574 167.3562 353.1052  0.28308462  1395
MMS 2                   
1 40483U 15011B   26161.66670139 -.00000004  00000+0  00000+0 0  9994
2 40483  72.0848 348.8676 8325363 167.3618 353.0937  0.28308356  1392
MMS 3                   
1 40484U 15011C   26161.66670139 -.00000004  00000+0  00000+0 0  9995
2 40484  72.0879 348.8721 8324548 167.3563 353.0899  0.28308340  1391
MMS 4                   
1 40485U 15011D   26161.66670139 -.00000004  00000+0  00000+0 0  9996
2 40485  72.0841 348.8679 8324157 167.3641 353.0782  0.28308288  1398
ASTROSAT                
1 40930U 15052A   26161.49864019  .00001491  00000+0  99755-4 0  9999
2 40930   5.9952 203.5049 0008493 297.9641  61.9627 14.82496338578833
DAMPE                   
1 41173U 15078A   26161.56620248  .00000996  00000+0  36043-4 0  9999
2 41173  97.4561 167.0009 0013741  97.5848 262.6954 15.30767705583539
PISAT                   
1 41784U 16059B   26161.53677298  .00000812  00000+0  14590-3 0  9990
2 41784  97.8178 162.2754 0027899 224.6784 135.2174 14.68972214518765
HXMT (HUIYAN)           
1 42758U 17034A   26161.62218986  .00004126  00000+0  20609-3 0  9991
2 42758  43.0133 219.5963 0030201 103.8721 256.5490 15.18434084496665
FLYING LAPTOP           
1 42831U 17042G   26161.58632163  .00003510  00000+0  27764-3 0  9999
2 42831  97.4659 317.3750 0019266 143.2925 216.9624 15.01103306485463
ZHANGHENG 1-01 (CSES-1) 
1 43194U 18015C   26161.62500182  .00006128  00000+0  28081-3 0  9994
2 43194  97.6863 327.1533 0017099 291.1257  68.8150 15.20726982463642
SALSAT                  
1 46495U 20068K   26161.53894844  .00006924  00000+0  24329-3 0  9998
2 46495  97.8853 164.1992 0008621 335.4923  24.5905 15.29703223314342
IXPE                    
1 49954U 21121A   26161.66670139  .00010136  00000+0  54691-3 0  9990
2 49954   0.2306   6.6984 0007391 342.6478  62.9127 15.10190631  5493
SMILE                   
1 69123U 26109A   26144.65318427 -.00001976  00000+0 -42379-3 0  9994
2 69123  70.0007 229.2745 0009123 259.5159 100.4951 14.57062785   802
