OBJECT_NAME,OBJECT_ID,EPOCH,MEAN_MOTION,ECCENTRICITY,INCLINATION,RA_OF_ASC_NODE,ARG_OF_PERICENTER,MEAN_ANOMALY,EPHEMERIS_TYPE,CLASSIFICATION_TYPE,NORAD_CAT_ID,ELEMENT_SET_NO,REV_AT_EPOCH,BSTAR,MEAN_MOTION_DOT,MEAN_MOTION_DDOT
SWARM A,2013-067B,2026-06-10T12:13:05.904768,15.50818231,.00029878,87.3332,58.7218,93.3122,266.8480,0,U,39452,999,70521,.16788111E-3,.972E-4,0
SWARM C,2013-067C,2026-06-10T12:12:55.819296,15.50820569,.0002972,87.3332,57.3032,93.0528,267.1073,0,U,39453,999,70517,.16645058E-3,.9638E-4,0
BRITE-CA1 (TORONTO),2014-033L,2026-06-10T13:59:35.280672,14.72667572,.00773765,97.9731,290.6330,298.5340,60.8094,0,U,40020,999,64124,.98553247E-4,.603E-5,0
OCO 2,2014-035A,2026-06-10T13:30:59.800032,14.57105807,.00014881,98.2017,102.9572,86.4630,273.6738,0,U,40059,999,63508,.85633762E-4,.341E-5,0
BRITE-PL2 (HEWELIUSZ),2014-049B,2026-06-10T13:03:51.118560,14.94573225,.00151516,97.9091,273.4936,128.1527,232.1061,0,U,40119,999,64045,.14098481E-3,.1468E-4,0
MMS 1,2015-011A,2026-06-10T16:00:03.000096,0.28308462,.83245744,72.0847,348.8655,167.3562,353.1052,0,U,40482,999,139,0,-.5E-7,0
MMS 2,2015-011B,2026-06-10T16:00:03.000096,0.28308356,.83253637,72.0848,348.8676,167.3618,353.0937,0,U,40483,999,139,0,-.4E-7,0
MMS 3,2015-011C,2026-06-10T16:00:03.000096,0.28308340,.83245482,72.0879,348.8721,167.3563,353.0899,0,U,40484,999,139,0,-.4E-7,0
MMS 4,2015-011D,2026-06-10T16:00:03.000096,0.28308288,.83241572,72.0841,348.8679,167.3641,353.0782,0,U,40485,999,139,0,-.4E-7,0
ASTROSAT,2015-052A,2026-06-10T11:58:02.512416,14.82496338,.00084937,5.9952,203.5049,297.9641,61.9627,0,U,40930,999,57883,.9975488E-4,.1491E-4,0
DAMPE,2015-078A,2026-06-10T13:35:19.894272,15.30767705,.00137413,97.4561,167.0009,97.5848,262.6954,0,U,41173,999,58353,.36043192E-4,.996E-5,0
PISAT,2016-059B,2026-06-10T12:52:57.185472,14.68972214,.00278992,97.8178,162.2754,224.6784,135.2174,0,U,41784,999,51876,.14590202E-3,.812E-5,0
HXMT (HUIYAN),2017-034A,2026-06-10T14:55:57.203904,15.18434084,.0030201,43.0133,219.5963,103.8721,256.5490,0,U,42758,999,49666,.20608706E-3,.4126E-4,0
FLYING LAPTOP,2017-042G,2026-06-10T14:04:18.188832,15.01103306,.00192663,97.4659,317.3750,143.2925,216.9624,0,U,42831,999,48546,.27764316E-3,.351E-4,0
ZHANGHENG 1-01 (CSES-1),2018-015C,2026-06-10T15:00:00.157248,15.20726982,.00170992,97.6863,327.1533,291.1257,68.8150,0,U,43194,999,46364,.28081151E-3,.6128E-4,0
SALSAT,2020-068K,2026-06-10T12:56:05.145216,15.29703223,.00086211,97.8853,164.1992,335.4923,24.5905,0,U,46495,999,31434,.24329255E-3,.6924E-4,0
IXPE,2021-121A,2026-06-10T16:00:03.000096,15.10190631,.00073913,0.2306,6.6984,342.6478,62.9127,0,U,49954,999,549,.5469105E-3,.10136E-3,0
SMILE,2026-109A,2026-05-24T15:40:35.120928,14.57062785,.00091232,70.0007,229.2745,259.5159,100.4951,0,U,69123,999,80,-.42378883E-3,-.1976E-4,0
